[{"OBJECT_NAME":"BEIDOU-3 M20 (C42)","OBJECT_ID":"2019-090B","EPOCH":"2026-03-14T07:15:32.481792","MEAN_MOTION":1.86231612,"ECCENTRICITY":0.00178692,"INCLINATION":56.478,"RA_OF_ASC_NODE":65.96,"ARG_OF_PERICENTER":303.3279,"MEAN_ANOMALY":64.8469,"EPHEMERIS_TYPE":0,"CLASSIFICATION_TYPE":"U","NORAD_CAT_ID":44865,"ELEMENT_SET_NO":999,"REV_AT_EPOCH":4245,"BSTAR":0,"MEAN_MOTION_DOT":1.9e-7,"MEAN_MOTION_DDOT":0},{"OBJECT_NAME":"BEIDOU-3 G2 (C60)","OBJECT_ID":"2020-017A","EPOCH":"2026-03-14T22:34:54.623136","MEAN_MOTION":1.00272381,"ECCENTRICITY":0.00027339,"INCLINATION":2.6743,"RA_OF_ASC_NODE":45.7536,"ARG_OF_PERICENTER":323.3562,"MEAN_ANOMALY":222.2179,"EPHEMERIS_TYPE":0,"CLASSIFICATION_TYPE":"U","NORAD_CAT_ID":45344,"ELEMENT_SET_NO":999,"REV_AT_EPOCH":2231,"BSTAR":0,"MEAN_MOTION_DOT":-1.39e-6,"MEAN_MOTION_DDOT":0},{"OBJECT_NAME":"COSMOS 2545 (760)","OBJECT_ID":"2020-018A","EPOCH":"2026-03-14T10:25:02.161920","MEAN_MOTION":2.13102766,"ECCENTRICITY":0.00079436,"INCLINATION":64.4117,"RA_OF_ASC_NODE":315.7512,"ARG_OF_PERICENTER":249.5607,"MEAN_ANOMALY":110.4169,"EPHEMERIS_TYPE":0,"CLASSIFICATION_TYPE":"U","NORAD_CAT_ID":45358,"ELEMENT_SET_NO":999,"REV_AT_EPOCH":4664,"BSTAR":0,"MEAN_MOTION_DOT":-2.0e-7,"MEAN_MOTION_DDOT":0},{"OBJECT_NAME":"BEIDOU-3 G3 (C61)","OBJECT_ID":"2020-040A","EPOCH":"2026-03-14T22:43:31.296864","MEAN_MOTION":1.00270508,"ECCENTRICITY":0.00048394,"INCLINATION":2.2142,"RA_OF_ASC_NODE":67.1491,"ARG_OF_PERICENTER":325.3883,"MEAN_ANOMALY":231.4219,"EPHEMERIS_TYPE":0,"CLASSIFICATION_TYPE":"U","NORAD_CAT_ID":45807,"ELEMENT_SET_NO":999,"REV_AT_EPOCH":2112,"BSTAR":0,"MEAN_MOTION_DOT":-3.53e-6,"MEAN_MOTION_DDOT":0},{"OBJECT_NAME":"GPS BIII-3  (PRN 23)","OBJECT_ID":"2020-041A","EPOCH":"2026-03-14T12:08:51.231264","MEAN_MOTION":2.00560602,"ECCENTRICITY":0.00615074,"INCLINATION":56.612,"RA_OF_ASC_NODE":32.6177,"ARG_OF_PERICENTER":205.1523,"MEAN_ANOMALY":158.031,"EPHEMERIS_TYPE":0,"CLASSIFICATION_TYPE":"U","NORAD_CAT_ID":45854,"ELEMENT_SET_NO":999,"REV_AT_EPOCH":4214,"BSTAR":0,"MEAN_MOTION_DOT":-5.0e-7,"MEAN_MOTION_DDOT":0},{"OBJECT_NAME":"GALAXY 30 (WAAS/PRN 135)","OBJECT_ID":"2020-056C","EPOCH":"2026-03-14T16:28:18.306336","MEAN_MOTION":1.00270004,"ECCENTRICITY":0.00020135,"INCLINATION":0.0264,"RA_OF_ASC_NODE":153.211,"ARG_OF_PERICENTER":213.9429,"MEAN_ANOMALY":287.2274,"EPHEMERIS_TYPE":0,"CLASSIFICATION_TYPE":"U","NORAD_CAT_ID":46114,"ELEMENT_SET_NO":999,"REV_AT_EPOCH":2034,"BSTAR":0,"MEAN_MOTION_DOT":0,"MEAN_MOTION_DDOT":0},{"OBJECT_NAME":"COSMOS 2547 (705K)","OBJECT_ID":"2020-075A","EPOCH":"2026-03-12T06:37:56.595072","MEAN_MOTION":2.13100396,"ECCENTRICITY":0.00070074,"INCLINATION":64.5993,"RA_OF_ASC_NODE":195.7069,"ARG_OF_PERICENTER":230.8854,"MEAN_ANOMALY":129.0383,"EPHEMERIS_TYPE":0,"CLASSIFICATION_TYPE":"U","NORAD_CAT_ID":46805,"ELEMENT_SET_NO":999,"REV_AT_EPOCH":4184,"BSTAR":0,"MEAN_MOTION_DOT":1.1e-7,"MEAN_MOTION_DDOT":0},{"OBJECT_NAME":"GPS BIII-4  (PRN 14)","OBJECT_ID":"2020-078A","EPOCH":"2026-03-14T12:57:01.611072","MEAN_MOTION":2.00565455,"ECCENTRICITY":0.00687632,"INCLINATION":53.9999,"RA_OF_ASC_NODE":214.6151,"ARG_OF_PERICENTER":204.4949,"MEAN_ANOMALY":156.3566,"EPHEMERIS_TYPE":0,"CLASSIFICATION_TYPE":"U","NORAD_CAT_ID":46826,"ELEMENT_SET_NO":999,"REV_AT_EPOCH":3961,"BSTAR":0,"MEAN_MOTION_DOT":1.2e-7,"MEAN_MOTION_DDOT":0},{"OBJECT_NAME":"GPS BIII-5  (PRN 11)","OBJECT_ID":"2021-054A","EPOCH":"2026-03-14T12:40:55.654752","MEAN_MOTION":2.00575107,"ECCENTRICITY":0.00238027,"INCLINATION":55.2165,"RA_OF_ASC_NODE":336.2678,"ARG_OF_PERICENTER":231.6535,"MEAN_ANOMALY":305.6629,"EPHEMERIS_TYPE":0,"CLASSIFICATION_TYPE":"U","NORAD_CAT_ID":48859,"ELEMENT_SET_NO":999,"REV_AT_EPOCH":3485,"BSTAR":0,"MEAN_MOTION_DOT":-7.5e-7,"MEAN_MOTION_DDOT":0},{"OBJECT_NAME":"QZS-1R (QZSS/PRN 196)","OBJECT_ID":"2021-096A","EPOCH":"2026-03-14T11:37:12.588672","MEAN_MOTION":1.00287959,"ECCENTRICITY":0.0748407,"INCLINATION":37.2643,"RA_OF_ASC_NODE":80.9807,"ARG_OF_PERICENTER":269.9092,"MEAN_ANOMALY":130.192,"EPHEMERIS_TYPE":0,"CLASSIFICATION_TYPE":"U","NORAD_CAT_ID":49336,"ELEMENT_SET_NO":999,"REV_AT_EPOCH":1606,"BSTAR":0,"MEAN_MOTION_DOT":-2.13e-6,"MEAN_MOTION_DDOT":0},{"OBJECT_NAME":"GSAT0223 (GALILEO 27)","OBJECT_ID":"2021-116A","EPOCH":"2026-03-14T06:48:45.625824","MEAN_MOTION":1.70475737,"ECCENTRICITY":0.00019588,"INCLINATION":57.1915,"RA_OF_ASC_NODE":344.2418,"ARG_OF_PERICENTER":285.8605,"MEAN_ANOMALY":269.7171,"EPHEMERIS_TYPE":0,"CLASSIFICATION_TYPE":"U","NORAD_CAT_ID":49809,"ELEMENT_SET_NO":999,"REV_AT_EPOCH":2656,"BSTAR":0,"MEAN_MOTION_DOT":-8.1e-7,"MEAN_MOTION_DDOT":0},{"OBJECT_NAME":"GSAT0224 (GALILEO 28)","OBJECT_ID":"2021-116B","EPOCH":"2026-03-05T06:58:38.412768","MEAN_MOTION":1.7047576,"ECCENTRICITY":0.0001942,"INCLINATION":57.1948,"RA_OF_ASC_NODE":344.4822,"ARG_OF_PERICENTER":295.2728,"MEAN_ANOMALY":253.6293,"EPHEMERIS_TYPE":0,"CLASSIFICATION_TYPE":"U","NORAD_CAT_ID":49810,"ELEMENT_SET_NO":999,"REV_AT_EPOCH":2643,"BSTAR":0,"MEAN_MOTION_DOT":-1.05e-6,"MEAN_MOTION_DDOT":0},{"OBJECT_NAME":"COSMOS 2557 (706K)","OBJECT_ID":"2022-075A","EPOCH":"2026-03-13T20:22:48.025344","MEAN_MOTION":2.13102035,"ECCENTRICITY":0.00113868,"INCLINATION":64.3539,"RA_OF_ASC_NODE":317.846,"ARG_OF_PERICENTER":283.8913,"MEAN_ANOMALY":76.0424,"EPHEMERIS_TYPE":0,"CLASSIFICATION_TYPE":"U","NORAD_CAT_ID":52984,"ELEMENT_SET_NO":999,"REV_AT_EPOCH":2868,"BSTAR":0,"MEAN_MOTION_DOT":-2.9e-7,"MEAN_MOTION_DDOT":0},{"OBJECT_NAME":"COSMOS 2559 (707K)","OBJECT_ID":"2022-130A","EPOCH":"2026-03-10T09:12:34.386912","MEAN_MOTION":2.13101391,"ECCENTRICITY":0.00106247,"INCLINATION":64.328,"RA_OF_ASC_NODE":318.0548,"ARG_OF_PERICENTER":180.6502,"MEAN_ANOMALY":179.4033,"EPHEMERIS_TYPE":0,"CLASSIFICATION_TYPE":"U","NORAD_CAT_ID":54031,"ELEMENT_SET_NO":999,"REV_AT_EPOCH":2658,"BSTAR":0,"MEAN_MOTION_DOT":-5.4e-7,"MEAN_MOTION_DDOT":0},{"OBJECT_NAME":"COSMOS 2564 (761)","OBJECT_ID":"2022-161A","EPOCH":"2026-03-13T12:17:21.575328","MEAN_MOTION":2.13101956,"ECCENTRICITY":0.00096749,"INCLINATION":64.7411,"RA_OF_ASC_NODE":195.8848,"ARG_OF_PERICENTER":211.591,"MEAN_ANOMALY":148.3349,"EPHEMERIS_TYPE":0,"CLASSIFICATION_TYPE":"U","NORAD_CAT_ID":54377,"ELEMENT_SET_NO":999,"REV_AT_EPOCH":2559,"BSTAR":0,"MEAN_MOTION_DOT":5.0e-8,"MEAN_MOTION_DDOT":0},{"OBJECT_NAME":"GPS BIII-6  (PRN 28)","OBJECT_ID":"2023-009A","EPOCH":"2026-03-14T17:27:42.608736","MEAN_MOTION":2.00548582,"ECCENTRICITY":0.00043906,"INCLINATION":55.1105,"RA_OF_ASC_NODE":152.2325,"ARG_OF_PERICENTER":348.8475,"MEAN_ANOMALY":10.5503,"EPHEMERIS_TYPE":0,"CLASSIFICATION_TYPE":"U","NORAD_CAT_ID":55268,"ELEMENT_SET_NO":999,"REV_AT_EPOCH":2334,"BSTAR":0,"MEAN_MOTION_DOT":2.0e-8,"MEAN_MOTION_DDOT":0},{"OBJECT_NAME":"BEIDOU-3 G4 (C62)","OBJECT_ID":"2023-066A","EPOCH":"2026-03-13T04:10:32.176992","MEAN_MOTION":1.00272296,"ECCENTRICITY":0.00026474,"INCLINATION":0.6336,"RA_OF_ASC_NODE":312.1088,"ARG_OF_PERICENTER":153.4351,"MEAN_ANOMALY":287.9442,"EPHEMERIS_TYPE":0,"CLASSIFICATION_TYPE":"U","NORAD_CAT_ID":56564,"ELEMENT_SET_NO":999,"REV_AT_EPOCH":1043,"BSTAR":0,"MEAN_MOTION_DOT":-1.11e-6,"MEAN_MOTION_DDOT":0}]
